{
  "type": "FeatureCollection",
  "features": [
    {
      "type": "Feature",
      "properties": {
        "norad_id": 33886,
        "name": "IRIDIUM 33 DEB",
        "group": "iridium-33-debris",
        "lat": -46.447529906528345,
        "lon": 63.65778856499127,
        "alt_km": 775.2929521486003,
        "timestamp": "2025-12-12T03:50:52.802902+00:00",
        "meta_object_name": "IRIDIUM 33 DEB",
        "meta_object_id": "1997-051BF",
        "meta_epoch": "2025-12-11T11:23:31.797312",
        "meta_mean_motion": 14.36050155,
        "meta_eccentricity": 0.00122283,
        "meta_inclination": 86.383,
        "meta_ra_of_asc_node": 67.7612,
        "meta_arg_of_pericenter": 246.7656,
        "meta_mean_anomaly": 124.1555,
        "meta_ephemeris_type": 0,
        "meta_classification_type": "U",
        "meta_norad_cat_id": 33886,
        "meta_element_set_no": 999,
        "meta_rev_at_epoch": 88034,
        "meta_bstar": 0.00033597727,
        "meta_mean_motion_dot": 9.97e-06,
        "meta_mean_motion_ddot": 0,
        "tle_line1": "1 33886U 97051BF  25345.47467358  .00000997  00000+0  33598-3 0  9998",
        "tle_line2": "2 33886  86.3830  67.7612 0012228 246.7656 124.1555 14.36050155880344"
      },
      "geometry": {
        "type": "Point",
        "coordinates": [
          63.65778856499127,
          -46.447529906528345
        ]
      }
    },
    {
      "type": "Feature",
      "properties": {
        "norad_id": 33887,
        "name": "IRIDIUM 33 DEB",
        "group": "iridium-33-debris",
        "lat": -66.98742133623617,
        "lon": -167.6052928284751,
        "alt_km": 772.082634916128,
        "timestamp": "2025-12-12T03:50:52.802914+00:00",
        "meta_object_name": "IRIDIUM 33 DEB",
        "meta_object_id": "1997-051BG",
        "meta_epoch": "2025-12-11T01:55:48.688896",
        "meta_mean_motion": 14.37218579,
        "meta_eccentricity": 0.0004312,
        "meta_inclination": 86.3045,
        "meta_ra_of_asc_node": 4.1074,
        "meta_arg_of_pericenter": 234.0797,
        "meta_mean_anomaly": 189.2272,
        "meta_ephemeris_type": 0,
        "meta_classification_type": "U",
        "meta_norad_cat_id": 33887,
        "meta_element_set_no": 999,
        "meta_rev_at_epoch": 88141,
        "meta_bstar": 0.00021085031,
        "meta_mean_motion_dot": 6.47e-06,
        "meta_mean_motion_ddot": 0,
        "tle_line1": "1 33887U 97051BG  25345.08042464  .00000647  00000+0  21085-3 0  9993",
        "tle_line2": "2 33887  86.3045   4.1074 0004312 234.0797 189.2272 14.37218579881415"
      },
      "geometry": {
        "type": "Point",
        "coordinates": [
          -167.6052928284751,
          -66.98742133623617
        ]
      }
    },
    {
      "type": "Feature",
      "properties": {
        "norad_id": 33953,
        "name": "IRIDIUM 33 DEB",
        "group": "iridium-33-debris",
        "lat": 64.59917690652125,
        "lon": 61.68283592511127,
        "alt_km": 692.0309447986465,
        "timestamp": "2025-12-12T03:50:52.802924+00:00",
        "meta_object_name": "IRIDIUM 33 DEB",
        "meta_object_id": "1997-051BN",
        "meta_epoch": "2025-12-11T11:07:41.316960",
        "meta_mean_motion": 14.55307463,
        "meta_eccentricity": 0.00184119,
        "meta_inclination": 86.3843,
        "meta_ra_of_asc_node": 54.3329,
        "meta_arg_of_pericenter": 106.7147,
        "meta_mean_anomaly": 270.7615,
        "meta_ephemeris_type": 0,
        "meta_classification_type": "U",
        "meta_norad_cat_id": 33953,
        "meta_element_set_no": 999,
        "meta_rev_at_epoch": 88285,
        "meta_bstar": 0.0022887036,
        "meta_mean_motion_dot": 9.967e-05,
        "meta_mean_motion_ddot": 0,
        "tle_line1": "1 33953U 97051BN  25345.46367265  .00009967  00000+0  22887-2 0  9992",
        "tle_line2": "2 33953  86.3843  54.3329 0018411 106.7147 270.7615 14.55307463882851"
      },
      "geometry": {
        "type": "Point",
        "coordinates": [
          61.68283592511127,
          64.59917690652125
        ]
      }
    },
    {
      "type": "Feature",
      "properties": {
        "norad_id": 33960,
        "name": "IRIDIUM 33 DEB",
        "group": "iridium-33-debris",
        "lat": 12.714140315078074,
        "lon": 108.94053849680213,
        "alt_km": 615.7961663401347,
        "timestamp": "2025-12-12T03:50:52.802935+00:00",
        "meta_object_name": "IRIDIUM 33 DEB",
        "meta_object_id": "1997-051BV",
        "meta_epoch": "2025-12-11T14:56:53.632608",
        "meta_mean_motion": 14.85098404,
        "meta_eccentricity": 0.00074782,
        "meta_inclination": 86.2531,
        "meta_ra_of_asc_node": 290.0411,
        "meta_arg_of_pericenter": 64.1065,
        "meta_mean_anomaly": 111.1917,
        "meta_ephemeris_type": 0,
        "meta_classification_type": "U",
        "meta_norad_cat_id": 33960,
        "meta_element_set_no": 999,
        "meta_rev_at_epoch": 88850,
        "meta_bstar": 0.0051621197,
        "meta_mean_motion_dot": 0.00044397,
        "meta_mean_motion_ddot": 0,
        "tle_line1": "1 33960U 97051BV  25345.62284297  .00044397  00000+0  51621-2 0  9995",
        "tle_line2": "2 33960  86.2531 290.0411 0007478  64.1065 111.1917 14.85098404888506"
      },
      "geometry": {
        "type": "Point",
        "coordinates": [
          108.94053849680213,
          12.714140315078074
        ]
      }
    },
    {
      "type": "Feature",
      "properties": {
        "norad_id": 33966,
        "name": "IRIDIUM 33 DEB",
        "group": "iridium-33-debris",
        "lat": -23.06657306592808,
        "lon": -132.18462169920056,
        "alt_km": 727.4772337199647,
        "timestamp": "2025-12-12T03:50:52.802945+00:00",
        "meta_object_name": "IRIDIUM 33 DEB",
        "meta_object_id": "1997-051CB",
        "meta_epoch": "2025-12-11T14:16:19.034400",
        "meta_mean_motion": 14.49586801,
        "meta_eccentricity": 0.00072721,
        "meta_inclination": 86.3923,
        "meta_ra_of_asc_node": 46.5185,
        "meta_arg_of_pericenter": 192.0381,
        "meta_mean_anomaly": 300.8829,
        "meta_ephemeris_type": 0,
        "meta_classification_type": "U",
        "meta_norad_cat_id": 33966,
        "meta_element_set_no": 999,
        "meta_rev_at_epoch": 88425,
        "meta_bstar": 0.00085094267,
        "meta_mean_motion_dot": 3.286e-05,
        "meta_mean_motion_ddot": 0,
        "tle_line1": "1 33966U 97051CB  25345.59466475  .00003286  00000+0  85094-3 0  9991",
        "tle_line2": "2 33966  86.3923  46.5185 0007272 192.0381 300.8829 14.49586801884254"
      },
      "geometry": {
        "type": "Point",
        "coordinates": [
          -132.18462169920056,
          -23.06657306592808
        ]
      }
    },
    {
      "type": "Feature",
      "properties": {
        "norad_id": 34071,
        "name": "IRIDIUM 33 DEB",
        "group": "iridium-33-debris",
        "lat": -86.32922833878588,
        "lon": -76.98321597078673,
        "alt_km": 741.5296823032177,
        "timestamp": "2025-12-12T03:50:52.802955+00:00",
        "meta_object_name": "IRIDIUM 33 DEB",
        "meta_object_id": "1997-051CE",
        "meta_epoch": "2025-12-11T11:41:47.097024",
        "meta_mean_motion": 14.49457141,
        "meta_eccentricity": 0.00099283,
        "meta_inclination": 86.3459,
        "meta_ra_of_asc_node": 18.3725,
        "meta_arg_of_pericenter": 111.0549,
        "meta_mean_anomaly": 249.1718,
        "meta_ephemeris_type": 0,
        "meta_classification_type": "U",
        "meta_norad_cat_id": 34071,
        "meta_element_set_no": 999,
        "meta_rev_at_epoch": 88316,
        "meta_bstar": 0.001052324,
        "meta_mean_motion_dot": 4.049e-05,
        "meta_mean_motion_ddot": 0,
        "tle_line1": "1 34071U 97051CE  25345.48735066  .00004049  00000+0  10523-2 0  9994",
        "tle_line2": "2 34071  86.3459  18.3725 0009928 111.0549 249.1718 14.49457141883165"
      },
      "geometry": {
        "type": "Point",
        "coordinates": [
          -76.98321597078673,
          -86.32922833878588
        ]
      }
    },
    {
      "type": "Feature",
      "properties": {
        "norad_id": 34077,
        "name": "IRIDIUM 33 DEB",
        "group": "iridium-33-debris",
        "lat": 79.44763597211622,
        "lon": 71.59529922895409,
        "alt_km": 664.6231174706118,
        "timestamp": "2025-12-12T03:50:52.802966+00:00",
        "meta_object_name": "IRIDIUM 33 DEB",
        "meta_object_id": "1997-051CL",
        "meta_epoch": "2025-12-11T06:28:42.934368",
        "meta_mean_motion": 14.64809818,
        "meta_eccentricity": 0.00103779,
        "meta_inclination": 86.386,
        "meta_ra_of_asc_node": 52.1546,
        "meta_arg_of_pericenter": 44.2381,
        "meta_mean_anomaly": 23.4753,
        "meta_ephemeris_type": 0,
        "meta_classification_type": "U",
        "meta_norad_cat_id": 34077,
        "meta_element_set_no": 999,
        "meta_rev_at_epoch": 88311,
        "meta_bstar": 0.0029385818,
        "meta_mean_motion_dot": 0.00015729,
        "meta_mean_motion_ddot": 0,
        "tle_line1": "1 34077U 97051CL  25345.26994137  .00015729  00000+0  29386-2 0  9996",
        "tle_line2": "2 34077  86.3860  52.1546 0010377  44.2381  23.4753 14.64809818883111"
      },
      "geometry": {
        "type": "Point",
        "coordinates": [
          71.59529922895409,
          79.44763597211622
        ]
      }
    }
  ]
}